ONEWEB-0446             
1 51640U 22012U   24166.74955996 -.00000255  00000+0 -76772-3 0  9991
2 51640  87.8935 181.9038 0001755  84.3713 275.7614 13.10369958113408
ONEWEB-0448             
1 51641U 22012V   24166.75454408 -.00000440  00000+0 -12970-2 0  9990
2 51641  87.8936 181.9035 0002166  92.6943 267.4432 13.10373031113370
ONEWEB-0449             
1 51642U 22012W   24166.75953246 -.00000978  00000+0 -28371-2 0  9993
2 51642  87.8928 181.8969 0001660 103.7153 256.4160 13.10375184113380
ONEWEB-0451             
1 51643U 22012X   24166.95583565  .00000088  00000+0  19412-3 0  9996
2 51643  87.9158 151.6153 0002144  91.2580 268.8797 13.17648090117237
ONEWEB-0452             
1 51644U 22012Y   24166.95425767  .00000088  00000+0  19427-3 0  9992
2 51644  87.9165 151.6555 0002039  97.2172 262.9191 13.17647758117242
ONEWEB-0456             
1 51646U 22012AA  24166.76947847 -.00000527  00000+0 -15448-2 0  9999
2 51646  87.8932 181.8682 0002224  83.1579 276.9801 13.10375204113428
ONEWEB-0457             
1 51647U 22012AB  24166.74624660 -.00000029  00000+0 -11977-3 0  9994
2 51647  87.8935 181.8946 0001682  93.2627 266.8693 13.10377100113422
ONEWEB-0458             
1 51648U 22012AC  24166.76781813 -.00000615  00000+0 -17975-2 0  9995
2 51648  87.8943 181.9060 0002142  95.2920 264.8452 13.10374690113387
